EUTELSAT HOTBIRD 13G    
1 54225U 22146A   22326.91081426  .00000033  00000+0  00000+0 0  9993
2 54225  21.1474 316.3037 7847418 185.8879 151.1546  1.18535773   246
FALCON 9 R/B            
1 54226U 22146B   22327.42063603  .00000023  00000+0  49946-6 0  9996
2 54226  27.4418 316.0497 8081411 186.0452 147.1878  1.30884454   278
MATS                    
1 54227U 22147A   22327.25735614  .00000825  00000+0  85178-4 0  9992
2 54227  97.6525 329.4699 0012269 241.8571 118.1409 14.92724150  2760
ELECTRON KICK STAGE R/B 
1 54228U 22147B   22327.25490654  .00001669  00000+0  16588-3 0  9990
2 54228  97.6516 329.4721 0011849 237.5437 122.4637 14.92957562  2769
2022-148A               
1 54230U 22148A   22327.60923516 -.00000057  00000+0  10000-3 0  9995
2 54230   0.0108 255.6394 0006633 359.9210 189.7448  1.00271193   315
2022-148B               
1 54231U 22148B   22326.79058544  .00103222  94284-6  34247-2 0  9994
2 54231  28.3970 212.4733 7211855 189.8416 139.0770  2.41025884   421
CYGNUS NG-18            
1 54232U 22149A   22327.55855324  .00009693  00000+0  17653-3 0  9998
2 54232  51.6440 267.0794 0007097 105.2162 226.2847 15.50162873369897
JPSS-2                  
1 54234U 22150A   22327.45335261 -.00001118  00000+0 -46574-3 0  9994
2 54234  98.6949 263.7056 0023265 202.8920 157.1239 14.24086458  1859
YUNHAI 3                
1 54235U 22151A   22327.40653381  .00001794  00000+0  99490-3 0  9990
2 54235  98.8080 332.2572 0029716  36.8995 323.4205 14.12250054  1614
CZ-6A R/B               
1 54236U 22151B   22327.50253517  .00000252  00000+0  14447-3 0  9996
2 54236  98.8222 332.5300 0027663 318.6249  41.2830 14.17957332  1614
TIANZHOU-5              
1 54237U 22152A   22325.50000426  .00017008  00000+0  21774-3 0  9993
2 54237  41.4782 340.7631 0005753 287.2893 199.4266 15.58787929 89366
GALAXY 31               
1 54243U 22153A   22327.74886350  .00000155  00000+0  00000+0 0  9997
2 54243   0.0180 237.6089 0009131 112.8197 193.1797  1.00141868   104
GALAXY 32               
1 54244U 22153B   22327.74877633  .00000152  00000+0  00000+0 0  9999
2 54244   0.0431 336.9436 0003410 316.0263 250.3175  1.00301001   113
FALCON 9 R/B            
1 54248U 22153C   22327.08334733  .00004413 -11209-5  40165-3 0  9993
2 54248  24.5357 125.2556 8156320 183.3702 160.8140  1.29439933   122
YAOGAN-34 03            
1 54249U 22154A   22327.51206229 -.00000090  00000+0  00000+0 0  9999
2 54249  63.4098   4.6597 0009293 255.6978 104.3020 13.46763649  1147
CZ-4C R/B               
1 54250U 22154B   22327.52010997 -.00000039  00000+0  62545-4 0  9997
2 54250  63.4135   3.7843 0121896  44.6483 316.4294 13.68843824  1165
2022-155A               
1 54251U 22155A   22327.89110078  .00003385  00000+0  21561-3 0  9998
2 54251  97.5348  72.5341 0013292 261.7232 239.4362 15.09356529  1158
2022-155B               
1 54252U 22155B   22327.89106424  .00003431  00000+0  21854-3 0  9996
2 54252  97.5401  72.5391 0013226 262.2616 238.6553 15.09355088  1155
2022-155C               
1 54253U 22155C   22327.56989583  .00004068  00000+0  26004-3 0  9995
2 54253  97.5372  72.2173 0012647 259.4361 291.2873 15.09120346  1099
2022-155D               
1 54254U 22155D   22327.56866898  .00004053  00000+0  25771-3 0  9993
2 54254  97.5372  72.2184 0013181 263.0971 285.8902 15.09307801  1101
2022-155E               
1 54255U 22155E   22327.55763455  .00004000  00000+0  25412-3 0  9992
2 54255  97.5374  72.2076 0012485 264.0609 226.3729 15.09359914  1108
ORION                   
1 54257U 22156A   22320.38000000 -.00015874  00000+0  00000+0 0  9993
2 54257  30.5280  10.5600 9646414  20.9260   1.0490  0.10079459    30
SLS R/B                 
1 54258U 22156B   22320.38000000 -.00015394  00000+0  00000+0 0  9991
2 54258  30.5010  10.5910 9639665  20.8820   1.0790  0.10372534    41
EUTELSAT 10B            
1 54259U 22157A   22327.87190313 -.00000339  00000+0  00000+0 0  9994
2 54259  22.6558 298.0475 8180173 178.3516 328.3910  1.24997117    17
2022-157B               
1 54260U 22157B   22327.35621076 -.00000308  00000+0  00000+0 0  9990
2 54260  22.5756 298.4110 8168022 177.9903  96.7543  1.25446165    02
